0 COSMOS 2251 DEB
1 34037U 93036HY  13282.79819559  .00000514  00000-0  22234-3 0  2200
2 34037 074.0557 192.5951 0062823 254.6978 159.8357 14.25821790242152
0 COSMOS 2251 DEB
1 34037U 93036HY  13284.13407560  .00000702  00000-0  29977-3 0  2216
2 34037 074.0557 190.1859 0062773 252.0051 176.8120 14.25822964242343
0 COSMOS 2251 DEB
1 34037U 93036HY  13285.20486208  .00000634  00000-0  27180-3 0  2220
2 34037 074.0556 188.2549 0062718 249.8352 273.0978 14.25824028242493
0 COSMOS 2251 DEB
1 34037U 93036HY  13286.79770550  .00000700  00000-0  29907-3 0  2235
2 34037 074.0554 185.3824 0062628 246.5811 169.1049 14.25826220242725
0 COSMOS 2251 DEB
1 34037U 93036HY  13288.15160334  .00000910  00000-0  38543-3 0  2240
2 34037 074.0552 182.9407 0062564 243.8277 278.6075 14.25830323242913
0 COSMOS 2251 DEB
1 34037U 93036HY  13289.40598733  .00000684  00000-0  29259-3 0  2250
2 34037 074.0549 180.6784 0062507 241.2842 237.3200 14.25832560243096
0 COSMOS 2251 DEB
1 34037U 93036HY  13290.72750993  .00000769  00000-0  32759-3 0  2269
2 34037 074.0546 178.2951 0062485 238.6086 180.6628 14.25834337243286
0 COSMOS 2251 DEB
1 34037U 93036HY  13291.85413353  .00000822  00000-0  34907-3 0  2278
2 34037 074.0545 176.2632 0062447 236.3207 203.6101 14.25835355243448
0 COSMOS 2251 DEB
1 34037U 93036HY  13293.13123866  .00000846  00000-0  35904-3 0  2283
2 34037 074.0543 173.9598 0062400 233.7136 278.9937 14.25837432243622
0 COSMOS 2251 DEB
1 34037U 93036HY  13294.38659846  .00000766  00000-0  32598-3 0  2291
2 34037 074.0542 171.6956 0062334 231.1440 242.7726 14.25840536243804
0 COSMOS 2251 DEB
1 34037U 93036HY  13295.78130247  .00000796  00000-0  33829-3 0  2308
2 34037 074.0543 169.1801 0062258 228.3056 201.8062 14.25842547244008
